NAVSTAR 77 (USA 289)    
1 43873U 18109A   24156.36560876  .00000018  00000+0  00000+0 0  9990
2 43873  55.2930 121.5343 0028927 195.6504 336.2623  2.00555349 40178
